{
    "links": {
        "self": "http://www.neowsapp.com/rest/v1/neo/3394773?api_key=iIulBulltgU6a56xZRHN4H3l9WmuAYTsLGpBGhQ2"
    },
    "id": "3394773",
    "neo_reference_id": "3394773",
    "name": "(2007 VB191)",
    "designation": "2007 VB191",
    "nasa_jpl_url": "http://ssd.jpl.nasa.gov/sbdb.cgi?sstr=3394773",
    "absolute_magnitude_h": 25.1,
    "estimated_diameter": {
        "kilometers": {
            "estimated_diameter_min": 0.0253837029,
            "estimated_diameter_max": 0.0567596853
        },
        "meters": {
            "estimated_diameter_min": 25.3837029364,
            "estimated_diameter_max": 56.7596852866
        },
        "miles": {
            "estimated_diameter_min": 0.0157726969,
            "estimated_diameter_max": 0.0352688224
        },
        "feet": {
            "estimated_diameter_min": 83.279867942,
            "estimated_diameter_max": 186.2194458756
        }
    },
    "is_potentially_hazardous_asteroid": false,
    "close_approach_data": [
        {
            "close_approach_date": "1974-11-09",
            "close_approach_date_full": "1974-Nov-09 06:37",
            "epoch_date_close_approach": 153211020000,
            "relative_velocity": {
                "kilometers_per_second": "16.4700403783",
                "kilometers_per_hour": "59292.1453618498",
                "miles_per_hour": "36841.8333222005"
            },
            "miss_distance": {
                "astronomical": "0.2055011136",
                "lunar": "79.9399331904",
                "kilometers": "30742528.877188032",
                "miles": "19102521.6485855616"
            },
            "orbiting_body": "Earth"
        },
        {
            "close_approach_date": "2007-11-23",
            "close_approach_date_full": "2007-Nov-23 21:56",
            "epoch_date_close_approach": 1195854960000,
            "relative_velocity": {
                "kilometers_per_second": "11.4853803461",
                "kilometers_per_hour": "41347.3692460874",
                "miles_per_hour": "25691.6472962703"
            },
            "miss_distance": {
                "astronomical": "0.0223978199",
                "lunar": "8.7127519411",
                "kilometers": "3350666.149683613",
                "miles": "2082007.4014473394"
            },
            "orbiting_body": "Earth"
        },
        {
            "close_approach_date": "2102-11-05",
            "close_approach_date_full": "2102-Nov-05 23:20",
            "epoch_date_close_approach": 4192212000000,
            "relative_velocity": {
                "kilometers_per_second": "18.4890673128",
                "kilometers_per_hour": "66560.642325985",
                "miles_per_hour": "41358.1946719433"
            },
            "miss_distance": {
                "astronomical": "0.2443417889",
                "lunar": "95.0489558821",
                "kilometers": "36553011.171429643",
                "miles": "22712987.9266813534"
            },
            "orbiting_body": "Earth"
        }
    ],
    "orbital_data": {
        "orbit_id": "9",
        "orbit_determination_date": "2017-04-06 09:05:10",
        "first_observation_date": "2007-11-14",
        "last_observation_date": "2007-11-25",
        "data_arc_in_days": 11,
        "observations_used": 34,
        "orbit_uncertainty": "8",
        "minimum_orbit_intersection": ".00915879",
        "jupiter_tisserand_invariant": "3.255",
        "epoch_osculation": "2454423.5",
        "eccentricity": ".6143543372541844",
        "semi_major_axis": "2.376381636086505",
        "inclination": "2.933270057666823",
        "ascending_node_longitude": "54.46945880741159",
        "orbital_period": "1338.051127466782",
        "perihelion_distance": ".9164412709855656",
        "perihelion_argument": "46.26347881362383",
        "aphelion_distance": "3.836322001187443",
        "perihelion_time": "2454457.095909195547",
        "mean_anomaly": "350.9610873141339",
        "mean_motion": ".2690480151394195",
        "equinox": "J2000",
        "orbit_class": {
            "orbit_class_type": "APO",
            "orbit_class_description": "Near-Earth asteroid orbits which cross the Earth’s orbit similar to that of 1862 Apollo",
            "orbit_class_range": "a (semi-major axis) > 1.0 AU; q (perihelion) < 1.017 AU"
        }
    },
    "is_sentry_object": false
}